COSMOS 2527 (756)       
1 43508U 18053A   25332.71012380  .00000012  00000+0  00000+0 0  9995
2 43508  65.4651  80.6007 0008576 223.0414 136.8979  2.13102090 58006
COSMOS 2529 (757)       
1 43687U 18086A   25329.05356044  .00000058  00000+0  00000+0 0  9990
2 43687  64.2914 199.4861 0007567 254.9036 105.1045  2.13101982 54932
COSMOS 2534 (758)       
1 44299U 19030A   25333.28942874  .00000082  00000+0  00000+0 0  9999
2 44299  64.3652 199.3462 0009154 283.4895 220.5514  2.13102012 50666
COSMOS 2544 (759)       
1 44850U 19088A   25332.65466679  .00000012  00000+0  00000+0 0  9992
2 44850  65.4525  80.4296 0013559 248.4541 111.4081  2.13101801 46441
COSMOS 2545 (760)       
1 45358U 20018A   25333.31978249 -.00000018  00000+0  00000+0 0  9993
2 45358  64.4776 319.4408 0011957 248.1353 111.7529  2.13102420 44402
COSMOS 2547 (705K)      
1 46805U 20075A   25333.03847948  .00000080  00000+0  00000+0 0  9992
2 46805  64.5956 199.1541 0006349 229.8601 130.1706  2.13099906 39649
COSMOS 2557 (706K)      
1 52984U 22075A   25332.73458368 -.00000017  00000+0  00000+0 0  9990
2 52984  64.4176 321.5443 0013776 276.1615  83.6996  2.13101836 26444
COSMOS 2559 (707K)      
1 54031U 22130A   25330.20741117 -.00000019  00000+0  00000+0 0  9996
2 54031  64.3912 321.7233 0012211 192.8922 167.0930  2.13101404 24368
