{
  "type": "FeatureCollection",
  "features": [
    {
      "type": "Feature",
      "properties": {
        "OBJECT_NAME": "COSMOS 2527 (756)",
        "OBJECT_ID": "2018-053A",
        "EPOCH": "2025-11-28T17:02:34.696320",
        "MEAN_MOTION": 2.1310209,
        "ECCENTRICITY": 0.00085767,
        "INCLINATION": 65.4651,
        "RA_OF_ASC_NODE": 80.6007,
        "ARG_OF_PERICENTER": 223.0414,
        "MEAN_ANOMALY": 136.8979,
        "EPHEMERIS_TYPE": 0,
        "CLASSIFICATION_TYPE": "U",
        "NORAD_CAT_ID": 43508,
        "ELEMENT_SET_NO": 999,
        "REV_AT_EPOCH": 5800,
        "BSTAR": 0,
        "MEAN_MOTION_DOT": 1.2e-07,
        "MEAN_MOTION_DDOT": 0,
        "norad_id": 43508,
        "name": "COSMOS 2527 (756)",
        "group": "glo-ops",
        "longitude_deg": NaN,
        "latitude_deg": NaN,
        "alt_km": NaN,
        "orbit_class": "HEO",
        "timestamp": "2025-11-30T04:52:16.843654+00:00"
      },
      "geometry": {
        "type": "Point",
        "coordinates": [
          NaN,
          NaN
        ]
      }
    },
    {
      "type": "Feature",
      "properties": {
        "OBJECT_NAME": "COSMOS 2529 (757)",
        "OBJECT_ID": "2018-086A",
        "EPOCH": "2025-11-25T01:17:07.622016",
        "MEAN_MOTION": 2.13101982,
        "ECCENTRICITY": 0.00075673,
        "INCLINATION": 64.2914,
        "RA_OF_ASC_NODE": 199.4861,
        "ARG_OF_PERICENTER": 254.9036,
        "MEAN_ANOMALY": 105.1045,
        "EPHEMERIS_TYPE": 0,
        "CLASSIFICATION_TYPE": "U",
        "NORAD_CAT_ID": 43687,
        "ELEMENT_SET_NO": 999,
        "REV_AT_EPOCH": 5493,
        "BSTAR": 0,
        "MEAN_MOTION_DOT": 5.8e-07,
        "MEAN_MOTION_DDOT": 0,
        "norad_id": 43687,
        "name": "COSMOS 2529 (757)",
        "group": "glo-ops",
        "longitude_deg": NaN,
        "latitude_deg": NaN,
        "alt_km": NaN,
        "orbit_class": "HEO",
        "timestamp": "2025-11-30T04:52:16.843999+00:00"
      },
      "geometry": {
        "type": "Point",
        "coordinates": [
          NaN,
          NaN
        ]
      }
    },
    {
      "type": "Feature",
      "properties": {
        "OBJECT_NAME": "COSMOS 2534 (758)",
        "OBJECT_ID": "2019-030A",
        "EPOCH": "2025-11-29T06:56:46.643136",
        "MEAN_MOTION": 2.13102012,
        "ECCENTRICITY": 0.00091543,
        "INCLINATION": 64.3652,
        "RA_OF_ASC_NODE": 199.3462,
        "ARG_OF_PERICENTER": 283.4895,
        "MEAN_ANOMALY": 220.5514,
        "EPHEMERIS_TYPE": 0,
        "CLASSIFICATION_TYPE": "U",
        "NORAD_CAT_ID": 44299,
        "ELEMENT_SET_NO": 999,
        "REV_AT_EPOCH": 5066,
        "BSTAR": 0,
        "MEAN_MOTION_DOT": 8.2e-07,
        "MEAN_MOTION_DDOT": 0,
        "norad_id": 44299,
        "name": "COSMOS 2534 (758)",
        "group": "glo-ops",
        "longitude_deg": NaN,
        "latitude_deg": NaN,
        "alt_km": NaN,
        "orbit_class": "HEO",
        "timestamp": "2025-11-30T04:52:16.844731+00:00"
      },
      "geometry": {
        "type": "Point",
        "coordinates": [
          NaN,
          NaN
        ]
      }
    },
    {
      "type": "Feature",
      "properties": {
        "OBJECT_NAME": "COSMOS 2544 (759)",
        "OBJECT_ID": "2019-088A",
        "EPOCH": "2025-11-28T15:42:43.210656",
        "MEAN_MOTION": 2.13101801,
        "ECCENTRICITY": 0.00135594,
        "INCLINATION": 65.4525,
        "RA_OF_ASC_NODE": 80.4296,
        "ARG_OF_PERICENTER": 248.4541,
        "MEAN_ANOMALY": 111.4081,
        "EPHEMERIS_TYPE": 0,
        "CLASSIFICATION_TYPE": "U",
        "NORAD_CAT_ID": 44850,
        "ELEMENT_SET_NO": 999,
        "REV_AT_EPOCH": 4644,
        "BSTAR": 0,
        "MEAN_MOTION_DOT": 1.2e-07,
        "MEAN_MOTION_DDOT": 0,
        "norad_id": 44850,
        "name": "COSMOS 2544 (759)",
        "group": "glo-ops",
        "longitude_deg": NaN,
        "latitude_deg": NaN,
        "alt_km": NaN,
        "orbit_class": "HEO",
        "timestamp": "2025-11-30T04:52:16.845353+00:00"
      },
      "geometry": {
        "type": "Point",
        "coordinates": [
          NaN,
          NaN
        ]
      }
    },
    {
      "type": "Feature",
      "properties": {
        "OBJECT_NAME": "COSMOS 2545 (760)",
        "OBJECT_ID": "2020-018A",
        "EPOCH": "2025-11-29T07:40:29.207136",
        "MEAN_MOTION": 2.1310242,
        "ECCENTRICITY": 0.0011957,
        "INCLINATION": 64.4776,
        "RA_OF_ASC_NODE": 319.4408,
        "ARG_OF_PERICENTER": 248.1353,
        "MEAN_ANOMALY": 111.7529,
        "EPHEMERIS_TYPE": 0,
        "CLASSIFICATION_TYPE": "U",
        "NORAD_CAT_ID": 45358,
        "ELEMENT_SET_NO": 999,
        "REV_AT_EPOCH": 4440,
        "BSTAR": 0,
        "MEAN_MOTION_DOT": -1.8e-07,
        "MEAN_MOTION_DDOT": 0,
        "norad_id": 45358,
        "name": "COSMOS 2545 (760)",
        "group": "glo-ops",
        "longitude_deg": NaN,
        "latitude_deg": NaN,
        "alt_km": NaN,
        "orbit_class": "HEO",
        "timestamp": "2025-11-30T04:52:16.846427+00:00"
      },
      "geometry": {
        "type": "Point",
        "coordinates": [
          NaN,
          NaN
        ]
      }
    },
    {
      "type": "Feature",
      "properties": {
        "OBJECT_NAME": "COSMOS 2547 (705K)",
        "OBJECT_ID": "2020-075A",
        "EPOCH": "2025-11-29T00:55:24.627072",
        "MEAN_MOTION": 2.13099906,
        "ECCENTRICITY": 0.00063497,
        "INCLINATION": 64.5956,
        "RA_OF_ASC_NODE": 199.1541,
        "ARG_OF_PERICENTER": 229.8601,
        "MEAN_ANOMALY": 130.1706,
        "EPHEMERIS_TYPE": 0,
        "CLASSIFICATION_TYPE": "U",
        "NORAD_CAT_ID": 46805,
        "ELEMENT_SET_NO": 999,
        "REV_AT_EPOCH": 3964,
        "BSTAR": 0,
        "MEAN_MOTION_DOT": 8e-07,
        "MEAN_MOTION_DDOT": 0,
        "norad_id": 46805,
        "name": "COSMOS 2547 (705K)",
        "group": "glo-ops",
        "longitude_deg": NaN,
        "latitude_deg": NaN,
        "alt_km": NaN,
        "orbit_class": "HEO",
        "timestamp": "2025-11-30T04:52:16.848883+00:00"
      },
      "geometry": {
        "type": "Point",
        "coordinates": [
          NaN,
          NaN
        ]
      }
    },
    {
      "type": "Feature",
      "properties": {
        "OBJECT_NAME": "COSMOS 2557 (706K)",
        "OBJECT_ID": "2022-075A",
        "EPOCH": "2025-11-28T17:37:48.029952",
        "MEAN_MOTION": 2.13101836,
        "ECCENTRICITY": 0.00137764,
        "INCLINATION": 64.4176,
        "RA_OF_ASC_NODE": 321.5443,
        "ARG_OF_PERICENTER": 276.1615,
        "MEAN_ANOMALY": 83.6996,
        "EPHEMERIS_TYPE": 0,
        "CLASSIFICATION_TYPE": "U",
        "NORAD_CAT_ID": 52984,
        "ELEMENT_SET_NO": 999,
        "REV_AT_EPOCH": 2644,
        "BSTAR": 0,
        "MEAN_MOTION_DOT": -1.7e-07,
        "MEAN_MOTION_DDOT": 0,
        "norad_id": 52984,
        "name": "COSMOS 2557 (706K)",
        "group": "glo-ops",
        "longitude_deg": NaN,
        "latitude_deg": NaN,
        "alt_km": NaN,
        "orbit_class": "HEO",
        "timestamp": "2025-11-30T04:52:16.861957+00:00"
      },
      "geometry": {
        "type": "Point",
        "coordinates": [
          NaN,
          NaN
        ]
      }
    },
    {
      "type": "Feature",
      "properties": {
        "OBJECT_NAME": "COSMOS 2559 (707K)",
        "OBJECT_ID": "2022-130A",
        "EPOCH": "2025-11-26T04:58:40.325088",
        "MEAN_MOTION": 2.13101404,
        "ECCENTRICITY": 0.00122116,
        "INCLINATION": 64.3912,
        "RA_OF_ASC_NODE": 321.7233,
        "ARG_OF_PERICENTER": 192.8922,
        "MEAN_ANOMALY": 167.093,
        "EPHEMERIS_TYPE": 0,
        "CLASSIFICATION_TYPE": "U",
        "NORAD_CAT_ID": 54031,
        "ELEMENT_SET_NO": 999,
        "REV_AT_EPOCH": 2436,
        "BSTAR": 0,
        "MEAN_MOTION_DOT": -1.9e-07,
        "MEAN_MOTION_DDOT": 0,
        "norad_id": 54031,
        "name": "COSMOS 2559 (707K)",
        "group": "glo-ops",
        "longitude_deg": NaN,
        "latitude_deg": NaN,
        "alt_km": NaN,
        "orbit_class": "HEO",
        "timestamp": "2025-11-30T04:52:16.866698+00:00"
      },
      "geometry": {
        "type": "Point",
        "coordinates": [
          NaN,
          NaN
        ]
      }
    }
  ]
}